[{
    "id": "0001",
    "name": "Afghanistan",
    "flag": "ğŸ‡¦ğŸ‡«",
    "code": "AF",
    "dial_code": "+93",
    "pattern": "### ### ###",
    
}, {
    "id": "0003",
    "name": "Albania",
    "flag": "ğŸ‡¦ğŸ‡±",
    "code": "AL",
    "dial_code": "+355",
    "pattern": "## ### ####",
    
}, {
    "id": "0004",
    "name": "Algeria",
    "flag": "ğŸ‡©ğŸ‡¿",
    "code": "DZ",
    "dial_code": "+213",
    "pattern": "### ## ## ##",
    
}, {
    "id": "0005",
    "name": "American Samoa",
    "flag": "ğŸ‡¦ğŸ‡¸",
    "code": "AS",
    "dial_code": "+1684",
    "pattern": "### ####",
    
}, {
    "id": "0006",
    "name": "Andorra",
    "flag": "ğŸ‡¦ğŸ‡©",
    "code": "AD",
    "dial_code": "+376",
    "pattern": "## ## ##",
    
}, {
    "id": "0007",
    "name": "Angola",
    "flag": "ğŸ‡¦ğŸ‡´",
    "code": "AO",
    "dial_code": "+244",
    "pattern": "### ### ###",
    
}, {
    "id": "0008",
    "name": "Anguilla",
    "flag": "ğŸ‡¦ğŸ‡®",
    "code": "AI",
    "dial_code": "+1264",
    "pattern": "### ####",
    
}, {
    "id": "0010",
    "name": "Antigua & Barbuda",
    "flag": "ğŸ‡¦ğŸ‡¬",
    "code": "AG",
    "dial_code": "+1268",
    "pattern": "### ####",
    
}, {
    "id": "0011",
    "name": "Argentina",
    "flag": "ğŸ‡¦ğŸ‡·",
    "code": "AR",
    "dial_code": "+54",
    "pattern": "#",
    
}, {
    "id": "0012",
    "name": "Armenia",
    "flag": "ğŸ‡¦ğŸ‡²",
    "code": "AM",
    "dial_code": "+374",
    "pattern": "## ### ###",
    
}, {
    "id": "0013",
    "name": "Aruba",
    "flag": "ğŸ‡¦ğŸ‡¼",
    "code": "AW",
    "dial_code": "+297",
    "pattern": "### ####",
    
}, {
    "id": "0014",
    "name": "Australia",
    "flag": "ğŸ‡¦ğŸ‡º",
    "code": "AU",
    "dial_code": "+61",
    "pattern": "# #### ####",
    
}, {
    "id": "0015",
    "name": "Austria",
    "flag": "ğŸ‡¦ğŸ‡¹",
    "code": "AT",
    "dial_code": "+43",
    "pattern": "### ######",
    
}, {
    "id": "0016",
    "name": "Azerbaijan",
    "flag": "ğŸ‡¦ğŸ‡¿",
    "code": "AZ",
    "dial_code": "+994",
    "pattern": "## ### ####",
    
}, {
    "id": "0017",
    "name": "Bahamas",
    "flag": "ğŸ‡§ğŸ‡¸",
    "code": "BS",
    "dial_code": "+1242",
    "pattern": "### ####",
    
}, {
    "id": "0018",
    "name": "Bahrain",
    "flag": "ğŸ‡§ğŸ‡­",
    "code": "BH",
    "dial_code": "+973",
    "pattern": "#### ####",
    
}, {
    "id": "0019",
    "name": "Bangladesh",
    "flag": "ğŸ‡§ğŸ‡©",
    "code": "BD",
    "dial_code": "+880",
    "pattern": "## ### ###",
    
}, {
    "id": "0020",
    "name": "Barbados",
    "flag": "ğŸ‡§ğŸ‡§",
    "code": "BB",
    "dial_code": "+1246",
    "pattern": "### ####",
    
}, {
    "id": "0021",
    "name": "Belarus",
    "flag": "ğŸ‡§ğŸ‡¾",
    "code": "BY",
    "dial_code": "+375",
    "pattern": "## ### ####",
    
}, {
    "id": "0022",
    "name": "Belgium",
    "flag": "ğŸ‡§ğŸ‡ª",
    "code": "BE",
    "dial_code": "+32",
    "pattern": "### ## ## ##",
    
}, {
    "id": "0023",
    "name": "Belize",
    "flag": "ğŸ‡§ğŸ‡¿",
    "code": "BZ",
    "dial_code": "+501",
    "pattern": "#",
    
}, {
    "id": "0024",
    "name": "Benin",
    "flag": "ğŸ‡§ğŸ‡¯",
    "code": "BJ",
    "dial_code": "+229",
    "pattern": "## ### ###",
    
}, {
    "id": "0025",
    "name": "Bermuda",
    "flag": "ğŸ‡§ğŸ‡²",
    "code": "BM",
    "dial_code": "+1441",
    "pattern": "### ####",
    
}, {
    "id": "0026",
    "name": "Bhutan",
    "flag": "ğŸ‡§ğŸ‡¹",
    "code": "BT",
    "dial_code": "+975",
    "pattern": "## ### ###",
    
}, {
    "id": "0027",
    "name": "Bolivia",
    "flag": "ğŸ‡§ğŸ‡´",
    "code": "BO",
    "dial_code": "+591",
    "pattern": "# ### ####",
    
}, {
    "id": "0028",
    "name": "Bosnia & Herzegovina",
    "flag": "ğŸ‡§ğŸ‡¦",
    "code": "BA",
    "dial_code": "+387",
    "pattern": "## ### ###",
    
}, {
    "id": "0029",
    "name": "Botswana",
    "flag": "ğŸ‡§ğŸ‡¼",
    "code": "BW",
    "dial_code": "+267",
    "pattern": "## ### ###",
    
}, {
    "id": "0031",
    "name": "Brazil",
    "flag": "ğŸ‡§ğŸ‡·",
    "code": "BR",
    "dial_code": "+55",
    "pattern": "## ##### ####",
    
}, {
    "id": "0032",
    "name": "British Virgin Islands",
    "flag": "ğŸ‡»ğŸ‡¬",
    "code": "IO",
    "dial_code": "+1284",
    "pattern": "### ####",
    
}, {
    "id": "0033",
    "name": "Brunei Darussalam",
    "flag": "ğŸ‡§ğŸ‡³",
    "code": "BN",
    "dial_code": "+673",
    "pattern": "### ####",
    
}, {
    "id": "0034",
    "name": "Bulgaria",
    "flag": "ğŸ‡§ğŸ‡¬",
    "code": "BG",
    "dial_code": "+359",
    "pattern": "#",
    
}, {
    "id": "0035",
    "name": "Burkina Faso",
    "flag": "ğŸ‡§ğŸ‡«",
    "code": "BF",
    "dial_code": "+226",
    "pattern": "## ## ## ##",
    
}, {
    "id": "0036",
    "name": "Burundi",
    "flag": "ğŸ‡§ğŸ‡®",
    "code": "BI",
    "dial_code": "+257",
    "pattern": "## ## ####",
    
}, {
    "id": "0037",
    "name": "Cambodia",
    "flag": "ğŸ‡°ğŸ‡­",
    "code": "KH",
    "dial_code": "+855",
    "pattern": "## ### ###",
    
}, {
    "id": "0038",
    "name": "Cameroon",
    "flag": "ğŸ‡¨ğŸ‡²",
    "code": "CM",
    "dial_code": "+237",
    "pattern": "#### ####",
    
}, {
    "id": "0039",
    "name": "Canada",
    "flag": "ğŸ‡¨ğŸ‡¦",
    "code": "CA",
    "dial_code": "+1",
    "pattern": "### ### ####",
    
}, {
    "id": "0040",
    "name": "Cape Verde",
    "flag": "ğŸ‡¨ğŸ‡»",
    "code": "CV",
    "dial_code": "+238",
    "pattern": "### ####",
    
}, {
    "id": "0041",
    "name": "Cayman Islands",
    "flag": "ğŸ‡°ğŸ‡¾",
    "code": "KY",
    "dial_code": "+1345",
    "pattern": "### ####",
    
}, {
    "id": "0042",
    "name": "Central African Rep.",
    "flag": "ğŸ‡¨ğŸ‡«",
    "code": "CF",
    "dial_code": "+236",
    "pattern": "## ## ## ##",
    
}, {
    "id": "0043",
    "name": "Chad",
    "flag": "ğŸ‡¹ğŸ‡©",
    "code": "TD",
    "dial_code": "+235",
    "pattern": "## ## ## ##",
    
}, {
    "id": "0044",
    "name": "Chile",
    "flag": "ğŸ‡¨ğŸ‡±",
    "code": "CL",
    "dial_code": "+56",
    "pattern": "# #### ####",
    
}, {
    "id": "0045",
    "name": "China",
    "flag": "ğŸ‡¨ğŸ‡³",
    "code": "CN",
    "dial_code": "+86",
    "pattern": "### #### ####",
    
}, {
    "id": "0048",
    "name": "Colombia",
    "flag": "ğŸ‡¨ğŸ‡´",
    "code": "CO",
    "dial_code": "+57",
    "pattern": "### ### ####",
    
}, {
    "id": "0049",
    "name": "Comoros",
    "flag": "ğŸ‡°ğŸ‡²",
    "code": "KM",
    "dial_code": "+269",
    "pattern": "### ####",
    
}, {
    "id": "0050",
    "name": "Congo (Rep.)",
    "flag": "ğŸ‡¨ğŸ‡¬",
    "code": "CG",
    "dial_code": "+242",
    "pattern": "## ### ####",
    
}, {
    "id": "0051",
    "name": "Congo (Dem. Rep.)",
    "flag": "ğŸ‡¨ğŸ‡©",
    "code": "CD",
    "dial_code": "+243",
    "pattern": "## ### ####",
    
}, {
    "id": "0052",
    "name": "Cook Islands",
    "flag": "ğŸ‡¨ğŸ‡°",
    "code": "CK",
    "dial_code": "+682",
    "pattern": "#",
    
}, {
    "id": "0053",
    "name": "Costa Rica",
    "flag": "ğŸ‡¨ğŸ‡·",
    "code": "CR",
    "dial_code": "+506",
    "pattern": "#### ####",
    
}, {
    "id": "0054",
    "name": "Cote d'Ivoire",
    "flag": "ğŸ‡¨ğŸ‡®",
    "code": "CI",
    "dial_code": "+225",
    "pattern": "## ## ## ####",
    
}, {
    "id": "0055",
    "name": "Croatia",
    "flag": "ğŸ‡­ğŸ‡·",
    "code": "HR",
    "dial_code": "+385",
    "pattern": "## ### ###",
    
}, {
    "id": "0056",
    "name": "Cuba",
    "flag": "ğŸ‡¨ğŸ‡º",
    "code": "CU",
    "dial_code": "+53",
    "pattern": "# ### ####",
    
}, {
    "id": "0057",
    "name": "Cyprus",
    "flag": "ğŸ‡¨ğŸ‡¾",
    "code": "CY",
    "dial_code": "+357",
    "pattern": "#### ####",
    
}, {
    "id": "0058",
    "name": "Czech Republic",
    "flag": "ğŸ‡¨ğŸ‡¿",
    "code": "CZ",
    "dial_code": "+420",
    "pattern": "### ### ###",
    
}, {
    "id": "0059",
    "name": "Denmark",
    "flag": "ğŸ‡©ğŸ‡°",
    "code": "DK",
    "dial_code": "+45",
    "pattern": "#### ####",
    
}, {
    "id": "006011",
    "name": "Diego Garcia",
    "flag": "ğŸ‡®ğŸ‡´",
    "code": "IO",
    "dial_code": "+246",
    "pattern": "#",
    
}, {
    "id": "0060",
    "name": "Djibouti",
    "flag": "ğŸ‡©ğŸ‡¯",
    "code": "DJ",
    "dial_code": "+253",
    "pattern": "## ## ## ##",
    
}, {
    "id": "0061",
    "name": "Dominica",
    "flag": "ğŸ‡©ğŸ‡²",
    "code": "DM",
    "dial_code": "+1767",
    "pattern": "### ####",
    
}, {
    "id": "0062",
    "name": "Dominican Rep.",
    "flag": "ğŸ‡©ğŸ‡´",
    "code": "DO",
    "dial_code": "+1809",
    "pattern": "### ####",
    
}, {
    "id": "0063",
    "name": "Ecuador",
    "flag": "ğŸ‡ªğŸ‡¨",
    "code": "EC",
    "dial_code": "+593",
    "pattern": "## ### ####",
    
}, {
    "id": "0064",
    "name": "Egypt",
    "flag": "ğŸ‡ªğŸ‡¬",
    "code": "EG",
    "dial_code": "+20",
    "pattern": "## #### ####",
    
}, {
    "id": "0065",
    "name": "El Salvador",
    "flag": "ğŸ‡¸ğŸ‡»",
    "code": "SV",
    "dial_code": "+503",
    "pattern": "#### ####",
    
}, {
    "id": "0066",
    "name": "Equatorial Guinea",
    "flag": "ğŸ‡¬ğŸ‡¶",
    "code": "GQ",
    "dial_code": "+240",
    "pattern": "### ### ###",
    
}, {
    "id": "0067",
    "name": "Eritrea",
    "flag": "ğŸ‡ªğŸ‡·",
    "code": "ER",
    "dial_code": "+291",
    "pattern": "# ### ###",
    
}, {
    "id": "0068",
    "name": "Estonia",
    "flag": "ğŸ‡ªğŸ‡ª",
    "code": "EE",
    "dial_code": "+372",
    "pattern": "#### ###",
    
}, {
    "id": "006811",
    "name": "Eswatini",
    "flag": "ğŸ‡¸ğŸ‡¿",
    "code": "SZ",
    "dial_code": "+268",
    "pattern": "#### ####",
    
}, {
    "id": "0069",
    "name": "Ethiopia",
    "flag": "ğŸ‡ªğŸ‡¹",
    "code": "ET",
    "dial_code": "+251",
    "pattern": "## ### ###",
    
}, {
    "id": "0070",
    "name": "Falkland Islands",
    "flag": "ğŸ‡«ğŸ‡°",
    "code": "FK",
    "dial_code": "+500",
    "pattern": "#",
    
}, {
    "id": "0071",
    "name": "Faroe Islands",
    "flag": "ğŸ‡«ğŸ‡´",
    "code": "FO",
    "dial_code": "+298",
    "pattern": "### ###",
    "limit": 7
}, {
    "id": "0072",
    "name": "Fiji",
    "flag": "ğŸ‡«ğŸ‡¯",
    "code": "FJ",
    "dial_code": "+679",
    "pattern": "### ####",
    
}, {
    "id": "0073",
    "name": "Finland",
    "flag": "ğŸ‡«ğŸ‡®",
    "code": "FI",
    "dial_code": "+358",
    "pattern": "#",
    
}, {
    "id": "0074",
    "name": "France",
    "flag": "ğŸ‡«ğŸ‡·",
    "code": "FR",
    "dial_code": "+33",
    "pattern": "# ## ## ## ##",
    
}, {
    "id": "0075",
    "name": "French Guiana",
    "flag": "ğŸ‡¬ğŸ‡«",
    "code": "GF",
    "dial_code": "+594",
    "pattern": "#",
    
}, {
    "id": "0076",
    "name": "French Polynesia",
    "flag": "ğŸ‡µğŸ‡«",
    "code": "PF",
    "dial_code": "+689",
    "pattern": "#",
    
}, {
    "id": "0078",
    "name": "Gabon",
    "flag": "ğŸ‡¬ğŸ‡¦",
    "code": "GA",
    "dial_code": "+241",
    "pattern": "# ## ## ##",
    
}, {
    "id": "0079",
    "name": "Gambia",
    "flag": "ğŸ‡¬ğŸ‡²",
    "code": "GM",
    "dial_code": "+220",
    "pattern": "### ####",
    
}, {
    "id": "0080",
    "name": "Georgia",
    "flag": "ğŸ‡¬ğŸ‡ª",
    "code": "GE",
    "dial_code": "+995",
    "pattern": "### ### ###",
    
}, {
    "id": "0081",
    "name": "Germany",
    "flag": "ğŸ‡©ğŸ‡ª",
    "code": "DE",
    "dial_code": "+49",
    "pattern": "#",
    
}, {
    "id": "0082",
    "name": "Ghana",
    "flag": "ğŸ‡¬ğŸ‡­",
    "code": "GH",
    "dial_code": "+233",
    "pattern": "## ### ####",
    
}, {
    "id": "0083",
    "name": "Gibraltar",
    "flag": "ğŸ‡¬ğŸ‡®",
    "code": "GI",
    "dial_code": "+350",
    "pattern": "#### ####",
    
}, {
    "id": "0084",
    "name": "Greece",
    "flag": "ğŸ‡¬ğŸ‡·",
    "code": "GR",
    "dial_code": "+30",
    "pattern": "### ### ####",
    
}, {
    "id": "0085",
    "name": "Greenland",
    "flag": "ğŸ‡¬ğŸ‡±",
    "code": "GL",
    "dial_code": "+299",
    "pattern": "### ###",
    
}, {
    "id": "0086",
    "name": "Grenada",
    "flag": "ğŸ‡¬ğŸ‡©",
    "code": "GD",
    "dial_code": "+1473",
    "pattern": "### ####",
    
}, {
    "id": "0087",
    "name": "Guadeloupe",
    "flag": "ğŸ‡¬ğŸ‡µ",
    "code": "GP",
    "dial_code": "+590",
    "pattern": "### ## ## ##",
    
}, {
    "id": "0088",
    "name": "Guam",
    "flag": "ğŸ‡¬ğŸ‡º",
    "code": "GU",
    "dial_code": "+1671",
    "pattern": "### ####",
    
}, {
    "id": "0089",
    "name": "Guatemala",
    "flag": "ğŸ‡¬ğŸ‡¹",
    "code": "GT",
    "dial_code": "+502",
    "pattern": "# ### ####",
    
}, {
    "id": "0091",
    "name": "Guinea",
    "flag": "ğŸ‡¬ğŸ‡³",
    "code": "GN",
    "dial_code": "+224",
    "pattern": "### ### ###",
    
}, {
    "id": "0092",
    "name": "Guinea-Bissau",
    "flag": "ğŸ‡¬ğŸ‡¼",
    "code": "GW",
    "dial_code": "+245",
    "pattern": "### ## ## ##",
    
}, {
    "id": "0093",
    "name": "Guyana",
    "flag": "ğŸ‡¬ğŸ‡¾",
    "code": "GY",
    "dial_code": "+592",
    "pattern": "#",
    
}, {
    "id": "0094",
    "name": "Haiti",
    "flag": "ğŸ‡­ğŸ‡¹",
    "code": "HT",
    "dial_code": "+509",
    "pattern": "#### ####",
    
}, {
    "id": "0097",
    "name": "Honduras",
    "flag": "ğŸ‡­ğŸ‡³",
    "code": "HN",
    "dial_code": "+504",
    "pattern": "#### ####",
    
}, {
    "id": "0098",
    "name": "Hong Kong",
    "flag": "ğŸ‡­ğŸ‡°",
    "code": "HK",
    "dial_code": "+852",
    "pattern": "# ### ####",
    
}, {
    "id": "0099",
    "name": "Hungary",
    "flag": "ğŸ‡­ğŸ‡º",
    "code": "HU",
    "dial_code": "+36",
    "pattern": "### ### ###",
    
}, {
    "id": "0100",
    "name": "Iceland",
    "flag": "ğŸ‡®ğŸ‡¸",
    "code": "IS",
    "dial_code": "+354",
    "pattern": "### ####",
    
}, {
    "id": "0101",
    "name": "India",
    "flag": "ğŸ‡®ğŸ‡³",
    "code": "IN",
    "dial_code": "+91",
    "pattern": "##### #####",
    
}, {
    "id": "0102",
    "name": "Indonesia",
    "flag": "ğŸ‡®ğŸ‡©",
    "code": "ID",
    "dial_code": "+62",
    "pattern": "### ######",
    
}, {
    "id": "0103",
    "name": "Iran",
    "flag": "ğŸ‡®ğŸ‡·",
    "code": "IR",
    "dial_code": "+98",
    "pattern": "### ### ####",
    
}, {
    "id": "0104",
    "name": "Iraq",
    "flag": "ğŸ‡®ğŸ‡¶",
    "code": "IQ",
    "dial_code": "+964",
    "pattern": "### ### ####",
    
}, {
    "id": "0105",
    "name": "Ireland",
    "flag": "ğŸ‡®ğŸ‡ª",
    "code": "IE",
    "dial_code": "+353",
    "pattern": "## ### ####",
    
}, {
    "id": "0107",
    "name": "Israel",
    "flag": "ğŸ‡®ğŸ‡±",
    "code": "IL",
    "dial_code": "+972",
    "pattern": "## ### ####",
    
}, {
    "id": "0108",
    "name": "Italy",
    "flag": "ğŸ‡®ğŸ‡¹",
    "code": "IT",
    "dial_code": "+39",
    "pattern": "### ### ####",
    
}, {
    "id": "0109",
    "name": "Jamaica",
    "flag": "ğŸ‡¯ğŸ‡²",
    "code": "JM",
    "dial_code": "+1876",
    "pattern": "### ####",
    
}, {
    "id": "0110",
    "name": "Japan",
    "flag": "ğŸ‡¯ğŸ‡µ",
    "code": "JP",
    "dial_code": "+81",
    "pattern": "## #### ####",
    
}, {
    "id": "0112",
    "name": "Jordan",
    "flag": "ğŸ‡¯ğŸ‡´",
    "code": "JO",
    "dial_code": "+962",
    "pattern": "# #### ####",
    
}, {
    "id": "0113",
    "name": "Kazakhstan",
    "flag": "ğŸ‡°ğŸ‡¿",
    "code": "KZ",
    "dial_code": "+7",
    "pattern": "### ### ## ##",
    
}, {
    "id": "0114",
    "name": "Kenya",
    "flag": "ğŸ‡°ğŸ‡ª",
    "code": "KE",
    "dial_code": "+254",
    "pattern": "### ### ###",
    
}, {
    "id": "0115",
    "name": "Kiribati",
    "flag": "ğŸ‡°ğŸ‡®",
    "code": "KI",
    "dial_code": "+686",
    "pattern": "#### ####",
    
}, {
    "id": "0116",
    "name": "North Korea",
    "flag": "ğŸ‡°ğŸ‡µ",
    "code": "KP",
    "dial_code": "+850",
    "pattern": "#",
    
}, {
    "id": "0117",
    "name": "South Korea",
    "flag": "ğŸ‡°ğŸ‡·",
    "code": "KR",
    "dial_code": "+82",
    "pattern": "## #### ###",
    
}, {
    "id": "0118",
    "name": "Kosovo",
    "flag": "ğŸ‡½ğŸ‡°",
    "code": "XK",
    "dial_code": "+383",
    "pattern": "#### ####",
    
}, {
    "id": "0119",
    "name": "Kuwait",
    "flag": "ğŸ‡°ğŸ‡¼",
    "code": "KW",
    "dial_code": "+965",
    "pattern": "#### ####",
    
}, {
    "id": "0120",
    "name": "Kyrgyzstan",
    "flag": "ğŸ‡°ğŸ‡¬",
    "code": "KG",
    "dial_code": "+996",
    "pattern": "### ######",
    
}, {
    "id": "0121",
    "name": "Laos",
    "flag": "ğŸ‡±ğŸ‡¦",
    "code": "LA",
    "dial_code": "+856",
    "pattern": "## ## ### ###",
    
}, {
    "id": "0122",
    "name": "Latvia",
    "flag": "ğŸ‡±ğŸ‡»",
    "code": "LV",
    "dial_code": "+371",
    "pattern": "### #####",
    
}, {
    "id": "0123",
    "name": "Lebanon",
    "flag": "ğŸ‡±ğŸ‡§",
    "code": "LB",
    "dial_code": "+961",
    "pattern": "#",
    
}, {
    "id": "0124",
    "name": "Lesotho",
    "flag": "ğŸ‡±ğŸ‡¸",
    "code": "LS",
    "dial_code": "+266",
    "pattern": "## ### ###",
    
}, {
    "id": "0125",
    "name": "Liberia",
    "flag": "ğŸ‡±ğŸ‡·",
    "code": "LR",
    "dial_code": "+231",
    "pattern": "## ### ####",
    
}, {
    "id": "0126",
    "name": "Libya",
    "flag": "ğŸ‡±ğŸ‡¾",
    "code": "LY",
    "dial_code": "+218",
    "pattern": "## ### ####",
    
}, {
    "id": "0127",
    "name": "Liechtenstein",
    "flag": "ğŸ‡±ğŸ‡®",
    "code": "LI",
    "dial_code": "+423",
    "pattern": "### ####",
    
}, {
    "id": "0128",
    "name": "Lithuania",
    "flag": "ğŸ‡±ğŸ‡¹",
    "code": "LT",
    "dial_code": "+370",
    "pattern": "### #####",
    
}, {
    "id": "0129",
    "name": "Luxembourg",
    "flag": "ğŸ‡±ğŸ‡º",
    "code": "LU",
    "dial_code": "+352",
    "pattern": "### ### ###",
    
}, {
    "id": "0130",
    "name": "Macau",
    "flag": "ğŸ‡²ğŸ‡´",
    "code": "MO",
    "dial_code": "+853",
    "pattern": "#### ####",
    
}, {
    "id": "0131",
    "name": "Macedonia",
    "flag": "ğŸ‡²ğŸ‡°",
    "code": "MK",
    "dial_code": "+389",
    "pattern": "## ######",
    
}, {
    "id": "0132",
    "name": "Madagascar",
    "flag": "ğŸ‡²ğŸ‡¬",
    "code": "MG",
    "dial_code": "+261",
    "pattern": "## ######",
    
}, {
    "id": "0133",
    "name": "Malawi",
    "flag": "ğŸ‡²ğŸ‡¼",
    "code": "MW",
    "dial_code": "+265",
    "pattern": "## ## ### ##",
    
}, {
    "id": "0134",
    "name": "Malaysia",
    "flag": "ğŸ‡²ğŸ‡¾",
    "code": "MY",
    "dial_code": "+60",
    "pattern": "#",
    
}, {
    "id": "0135",
    "name": "Maldives",
    "flag": "ğŸ‡²ğŸ‡»",
    "code": "MV",
    "dial_code": "+960",
    "pattern": "### ####",
    
}, {
    "id": "0136",
    "name": "Mali",
    "flag": "ğŸ‡²ğŸ‡±",
    "code": "ML",
    "dial_code": "+223",
    "pattern": "#### ####",
    
}, {
    "id": "0137",
    "name": "Malta",
    "flag": "ğŸ‡²ğŸ‡¹",
    "code": "MT",
    "dial_code": "+356",
    "pattern": "## ## ## ##",
    
}, {
    "id": "0138",
    "name": "Marshall Islands",
    "flag": "ğŸ‡²ğŸ‡­",
    "code": "MH",
    "dial_code": "+692",
    "pattern": "#",
    
}, {
    "id": "0139",
    "name": "Martinique",
    "flag": "ğŸ‡²ğŸ‡¶",
    "code": "MQ",
    "dial_code": "+596",
    "pattern": "#",
    
}, {
    "id": "0140",
    "name": "Mauritania",
    "flag": "ğŸ‡²ğŸ‡·",
    "code": "MR",
    "dial_code": "+222",
    "pattern": "#### ####",
    
}, {
    "id": "0141",
    "name": "Mauritius",
    "flag": "ğŸ‡²ğŸ‡º",
    "code": "MU",
    "dial_code": "+230",
    "pattern": "#### ####",
    
}, {
    "id": "0143",
    "name": "Mexico",
    "flag": "ğŸ‡²ğŸ‡½",
    "code": "MX",
    "dial_code": "+52",
    "pattern": "#",
    
}, {
    "id": "0144",
    "name": "Micronesia",
    "flag": "ğŸ‡«ğŸ‡²",
    "code": "FM",
    "dial_code": "+691",
    "pattern": "#",
    
}, {
    "id": "0145",
    "name": "Moldova",
    "flag": "ğŸ‡²ğŸ‡©",
    "code": "MD",
    "dial_code": "+373",
    "pattern": "## ### ###",
    
}, {
    "id": "0146",
    "name": "Monaco",
    "flag": "ğŸ‡²ğŸ‡¨",
    "code": "MC",
    "dial_code": "+377",
    "pattern": "#### ####",
    
}, {
    "id": "0147",
    "name": "Mongolia",
    "flag": "ğŸ‡²ğŸ‡³",
    "code": "MN",
    "dial_code": "+976",
    "pattern": "## ## ####",
    
}, {
    "id": "0148",
    "name": "Montenegro",
    "flag": "ğŸ‡²ğŸ‡ª",
    "code": "ME",
    "dial_code": "+382",
    "pattern": "#",
    
}, {
    "id": "0149",
    "name": "Montserrat",
    "flag": "ğŸ‡²ğŸ‡¸",
    "code": "MS",
    "dial_code": "+1664",
    "pattern": "### ####",
    
}, {
    "id": "0150",
    "name": "Morocco",
    "flag": "ğŸ‡²ğŸ‡¦",
    "code": "MA",
    "dial_code": "+212",
    "pattern": "## ### ####",
    
}, {
    "id": "0151",
    "name": "Mozambique",
    "flag": "ğŸ‡²ğŸ‡¿",
    "code": "MZ",
    "dial_code": "+258",
    "pattern": "## ### ####",
    
}, {
    "id": "0152",
    "name": "Myanmar",
    "flag": "ğŸ‡²ğŸ‡²",
    "code": "MM",
    "dial_code": "+95",
    "pattern": "#",
    
}, {
    "id": "0153",
    "name": "Namibia",
    "flag": "ğŸ‡³ğŸ‡¦",
    "code": "NA",
    "dial_code": "+264",
    "pattern": "## ### ####",
    
}, {
    "id": "0154",
    "name": "Nauru",
    "flag": "ğŸ‡³ğŸ‡·",
    "code": "NR",
    "dial_code": "+674",
    "pattern": "#",
    
}, {
    "id": "0155",
    "name": "Nepal",
    "flag": "ğŸ‡³ğŸ‡µ",
    "code": "NP",
    "dial_code": "+977",
    "pattern": "## #### ####",
    
}, {
    "id": "0156",
    "name": "Netherlands",
    "flag": "ğŸ‡³ğŸ‡±",
    "code": "NL",
    "dial_code": "+31",
    "pattern": "# ## ## ## ##",
    
}, {
    "id": "0158",
    "name": "New Caledonia",
    "flag": "ğŸ‡³ğŸ‡¨",
    "code": "NC",
    "dial_code": "+687",
    "pattern": "#",
    
}, {
    "id": "0159",
    "name": "New Zealand",
    "flag": "ğŸ‡³ğŸ‡¿",
    "code": "NZ",
    "dial_code": "+64",
    "pattern": "#### ####",
    
}, {
    "id": "0160",
    "name": "Nicaragua",
    "flag": "ğŸ‡³ğŸ‡®",
    "code": "NI",
    "dial_code": "+505",
    "pattern": "#### ####",
    
}, {
    "id": "0161",
    "name": "Niger",
    "flag": "ğŸ‡³ğŸ‡ª",
    "code": "NE",
    "dial_code": "+227",
    "pattern": "## ## ## ##",
    
}, {
    "id": "0162",
    "name": "Nigeria",
    "flag": "ğŸ‡³ğŸ‡¬",
    "code": "NG",
    "dial_code": "+234",
    "pattern": "## #### ####",
    
}, {
    "id": "0163",
    "name": "Niue",
    "flag": "ğŸ‡³ğŸ‡º",
    "code": "NU",
    "dial_code": "+683",
    "pattern": "#",
    
}, {
    "id": "0164",
    "name": "Norfolk Island",
    "flag": "ğŸ‡³ğŸ‡«",
    "code": "NF",
    "dial_code": "+672",
    "pattern": "#",
    
}, {
    "id": "0165",
    "name": "Northern Mariana Islands",
    "flag": "ğŸ‡²ğŸ‡µ",
    "code": "MP",
    "dial_code": "+1670",
    "pattern": "### ####",
    
}, {
    "id": "0166",
    "name": "Norway",
    "flag": "ğŸ‡³ğŸ‡´",
    "code": "NO",
    "dial_code": "+47",
    "pattern": "### ## ###",
    
}, {
    "id": "0167",
    "name": "Oman",
    "flag": "ğŸ‡´ğŸ‡²",
    "code": "OM",
    "dial_code": "+968",
    "pattern": "#### ####",
    
}, {
    "id": "0168",
    "name": "Pakistan",
    "flag": "ğŸ‡µğŸ‡°",
    "code": "PK",
    "dial_code": "+92",
    "pattern": "### ### ####",
    
}, {
    "id": "0169",
    "name": "Palau",
    "flag": "ğŸ‡µğŸ‡¼",
    "code": "PW",
    "dial_code": "+680",
    "pattern": "#",
    
}, {
    "id": "0170",
    "name": "Palestine",
    "flag": "ğŸ‡µğŸ‡¸",
    "code": "PS",
    "dial_code": "+970",
    "pattern": "### ## ####",
    
}, {
    "id": "0171",
    "name": "Panama",
    "flag": "ğŸ‡µğŸ‡¦",
    "code": "PA",
    "dial_code": "+507",
    "pattern": "#### ####",
    
}, {
    "id": "0172",
    "name": "Papua New Guinea",
    "flag": "ğŸ‡µğŸ‡¬",
    "code": "PG",
    "dial_code": "+675",
    "pattern": "#",
    
}, {
    "id": "0173",
    "name": "Paraguay",
    "flag": "ğŸ‡µğŸ‡¾",
    "code": "PY",
    "dial_code": "+595",
    "pattern": "### ### ###",
    
}, {
    "id": "0174",
    "name": "Peru",
    "flag": "ğŸ‡µğŸ‡ª",
    "code": "PE",
    "dial_code": "+51",
    "pattern": "### ### ###",
    
}, {
    "id": "0175",
    "name": "Philippines",
    "flag": "ğŸ‡µğŸ‡­",
    "code": "PH",
    "dial_code": "+63",
    "pattern": "### ### ####",
    
}, {
    "id": "0177",
    "name": "Poland",
    "flag": "ğŸ‡µğŸ‡±",
    "code": "PL",
    "dial_code": "+48",
    "pattern": "### ### ###",
    
}, {
    "id": "0178",
    "name": "Portugal",
    "flag": "ğŸ‡µğŸ‡¹",
    "code": "PT",
    "dial_code": "+351",
    "pattern": "### ### ###",
    
}, {
    "id": "0179",
    "name": "Puerto Rico",
    "flag": "ğŸ‡µğŸ‡·",
    "code": "PR",
    "dial_code": "+1939",
    "pattern": "### ####",
    
}, {
    "id": "0180",
    "name": "Qatar",
    "flag": "ğŸ‡¶ğŸ‡¦",
    "code": "QA",
    "dial_code": "+974",
    "pattern": "## ### ###",
    
}, {
    "id": "0181",
    "name": "Romania",
    "flag": "ğŸ‡·ğŸ‡´",
    "code": "RO",
    "dial_code": "+40",
    "pattern": "### ### ###",
    
}, {
    "id": "0182",
    "name": "Russia",
    "flag": "ğŸ‡·ğŸ‡º",
    "code": "RU",
    "dial_code": "+7",
    "pattern": "### ### ####",
    
}, {
    "id": "0183",
    "name": "Rwanda",
    "flag": "ğŸ‡·ğŸ‡¼",
    "code": "RW",
    "dial_code": "+250",
    "pattern": "### ### ###",
    
}, {
    "id": "0184",
    "name": "Reunion",
    "flag": "ğŸ‡·ğŸ‡ª",
    "code": "RE",
    "dial_code": "+262",
    "pattern": "### ### ###",
    
}, {
    "id": "0186",
    "name": "Saint Helena",
    "flag": "ğŸ‡¸ğŸ‡­",
    "code": "SH",
    "dial_code": "+290",
    "pattern": "#",
    
}, {
    "id": "0187",
    "name": "Saint Kitts & Nevis",
    "flag": "ğŸ‡°ğŸ‡³",
    "code": "KN",
    "dial_code": "+1869",
    "pattern": "### ####",
    
}, {
    "id": "0188",
    "name": "Saint Lucia",
    "flag": "ğŸ‡±ğŸ‡¨",
    "code": "LC",
    "dial_code": "+1758",
    "pattern": "### ####",
    
}, {
    "id": "0190",
    "name": "Saint Pierre & Miquelon",
    "flag": "ğŸ‡µğŸ‡²",
    "code": "PM",
    "dial_code": "+508",
    "pattern": "#",
    
}, {
    "id": "0191",
    "name": "Saint Vincent & the Grenadines",
    "flag": "ğŸ‡»ğŸ‡¨",
    "code": "VC",
    "dial_code": "+1784",
    "pattern": "### ####",
    
}, {
    "id": "0192",
    "name": "Samoa",
    "flag": "ğŸ‡¼ğŸ‡¸",
    "code": "WS",
    "dial_code": "+685",
    "pattern": "#",
    
}, {
    "id": "0193",
    "name": "San Marino",
    "flag": "ğŸ‡¸ğŸ‡²",
    "code": "SM",
    "dial_code": "+378",
    "pattern": "#",
    
}, {
    "id": "0194",
    "name": "Sao Tome & Principe",
    "flag": "ğŸ‡¸ğŸ‡¹",
    "code": "ST",
    "dial_code": "+239",
    "pattern": "## #####",
    
}, {
    "id": "0195",
    "name": "Saudi Arabia",
    "flag": "ğŸ‡¸ğŸ‡¦",
    "code": "SA",
    "dial_code": "+966",
    "pattern": "## ### ####",
    
}, {
    "id": "0196",
    "name": "Senegal",
    "flag": "ğŸ‡¸ğŸ‡³",
    "code": "SN",
    "dial_code": "+221",
    "pattern": "## ### ####",
    
}, {
    "id": "0197",
    "name": "Serbia",
    "flag": "ğŸ‡·ğŸ‡¸",
    "code": "RS",
    "dial_code": "+381",
    "pattern": "## ### ###",
    
}, {
    "id": "0198",
    "name": "Seychelles",
    "flag": "ğŸ‡¸ğŸ‡¨",
    "code": "SC",
    "dial_code": "+248",
    "pattern": "# ## ## ##",
    
}, {
    "id": "0199",
    "name": "Sierra Leone",
    "flag": "ğŸ‡¸ğŸ‡±",
    "code": "SL",
    "dial_code": "+232",
    "pattern": "## ### ###",
    
}, {
    "id": "0200",
    "name": "Singapore",
    "flag": "ğŸ‡¸ğŸ‡¬",
    "code": "SG",
    "dial_code": "+65",
    "pattern": "#### ####",
    
}, {
    "id": "0201",
    "name": "Slovakia",
    "flag": "ğŸ‡¸ğŸ‡°",
    "code": "SK",
    "dial_code": "+421",
    "pattern": "### ### ###",
    
}, {
    "id": "0202",
    "name": "Slovenia",
    "flag": "ğŸ‡¸ğŸ‡®",
    "code": "SI",
    "dial_code": "+386",
    "pattern": "## ### ###",
    
}, {
    "id": "0203",
    "name": "Solomon Islands",
    "flag": "ğŸ‡¸ğŸ‡§",
    "code": "SB",
    "dial_code": "+677",
    "pattern": "#",
    
}, {
    "id": "0204",
    "name": "Somalia",
    "flag": "ğŸ‡¸ğŸ‡´",
    "code": "SO",
    "dial_code": "+252",
    "pattern": "## ### ###",
    
}, {
    "id": "0205",
    "name": "South Africa",
    "flag": "ğŸ‡¿ğŸ‡¦",
    "code": "ZA",
    "dial_code": "+27",
    "pattern": "## ### ####",
    
}, {
    "id": "0206",
    "name": "South Sudan",
    "flag": "ğŸ‡¸ğŸ‡¸",
    "code": "SS",
    "dial_code": "+211",
    "pattern": "## ### ####",
    
}, {
    "id": "0208",
    "name": "Spain",
    "flag": "ğŸ‡ªğŸ‡¸",
    "code": "ES",
    "dial_code": "+34",
    "pattern": "### ### ###",
    
}, {
    "id": "0209",
    "name": "Sri Lanka",
    "flag": "ğŸ‡±ğŸ‡°",
    "code": "LK",
    "dial_code": "+94",
    "pattern": "## ### ####",
    
}, {
    "id": "0210",
    "name": "Sudan",
    "flag": "ğŸ‡¸ğŸ‡©",
    "code": "SD",
    "dial_code": "+249",
    "pattern": "## ### ####",
    
}, {
    "id": "0211",
    "name": "Suriname",
    "flag": "ğŸ‡¸ğŸ‡·",
    "code": "SR",
    "dial_code": "+597",
    "pattern": "### ####",
    
}, {
    "id": "0214",
    "name": "Sweden",
    "flag": "ğŸ‡¸ğŸ‡ª",
    "code": "SE",
    "dial_code": "+46",
    "pattern": "## ### ####",
    
}, {
    "id": "0215",
    "name": "Switzerland",
    "flag": "ğŸ‡¨ğŸ‡­",
    "code": "CH",
    "dial_code": "+41",
    "pattern": "## ### ####",
    
}, {
    "id": "0216",
    "name": "Syria",
    "flag": "ğŸ‡¸ğŸ‡¾",
    "code": "SY",
    "dial_code": "+963",
    "pattern": "### ### ###",
    
}, {
    "id": "0217",
    "name": "Taiwan",
    "flag": "ğŸ‡¹ğŸ‡¼",
    "code": "TW",
    "dial_code": "+886",
    "pattern": "### ### ###",
    
}, {
    "id": "0218",
    "name": "Tajikistan",
    "flag": "ğŸ‡¹ğŸ‡¯",
    "code": "TJ",
    "dial_code": "+992",
    "pattern": "## ### ####",
    
}, {
    "id": "0219",
    "name": "Tanzania",
    "flag": "ğŸ‡¹ğŸ‡¿",
    "code": "TZ",
    "dial_code": "+255",
    "pattern": "## ### ####",
    
}, {
    "id": "0220",
    "name": "Thailand",
    "flag": "ğŸ‡¹ğŸ‡­",
    "code": "TH",
    "dial_code": "+66",
    "pattern": "# #### ####",
    
}, {
    "id": "0221",
    "name": "Timor-Leste",
    "flag": "ğŸ‡¹ğŸ‡±",
    "code": "TL",
    "dial_code": "+670",
    "pattern": "#",
    
}, {
    "id": "0222",
    "name": "Togo",
    "flag": "ğŸ‡¹ğŸ‡¬",
    "code": "TG",
    "dial_code": "+228",
    "pattern": "## ### ###",
    
}, {
    "id": "0223",
    "name": "Tokelau",
    "flag": "ğŸ‡¹ğŸ‡°",
    "code": "TK",
    "dial_code": "+690",
    "pattern": "#",
    
}, {
    "id": "0224",
    "name": "Tonga",
    "flag": "ğŸ‡¹ğŸ‡´",
    "code": "TO",
    "dial_code": "+676",
    "pattern": "#",
    
}, {
    "id": "0225",
    "name": "Trinidad & Tobago",
    "flag": "ğŸ‡¹ğŸ‡¹",
    "code": "TT",
    "dial_code": "+1868",
    "pattern": "### ####",
    
}, {
    "id": "0226",
    "name": "Tunisia",
    "flag": "ğŸ‡¹ğŸ‡³",
    "code": "TN",
    "dial_code": "+216",
    "pattern": "## ### ###",
    
}, {
    "id": "0227",
    "name": "Turkey",
    "flag": "ğŸ‡¹ğŸ‡·",
    "code": "TR",
    "dial_code": "+90",
    "pattern": "### ### ####",
    
}, {
    "id": "0228",
    "name": "Turkmenistan",
    "flag": "ğŸ‡¹ğŸ‡²",
    "code": "TM",
    "dial_code": "+993",
    "pattern": "## ######",
    
}, {
    "id": "0229",
    "name": "Turks & Caicos Islands",
    "flag": "ğŸ‡¹ğŸ‡¨",
    "code": "TC",
    "dial_code": "+1649",
    "pattern": "### ####",
    
}, {
    "id": "0230",
    "name": "Tuvalu",
    "flag": "ğŸ‡¹ğŸ‡»",
    "code": "TV",
    "dial_code": "+688",
    "pattern": "#",
    
}, {
    "id": "0231",
    "name": "Uganda",
    "flag": "ğŸ‡ºğŸ‡¬",
    "code": "UG",
    "dial_code": "+256",
    "pattern": "## ### ####",
    
}, {
    "id": "0232",
    "name": "Ukraine",
    "flag": "ğŸ‡ºğŸ‡¦",
    "code": "UA",
    "dial_code": "+380",
    "pattern": "## ### ## ##",
    
}, {
    "id": "0233",
    "name": "United Arab Emirates",
    "flag": "ğŸ‡¦ğŸ‡ª",
    "code": "AE",
    "dial_code": "+971",
    "pattern": "## ### ####",
    
}, {
    "id": "0234",
    "name": "United Kingdom",
    "flag": "ğŸ‡¬ğŸ‡§",
    "code": "GB",
    "dial_code": "+44",
    "pattern": "#### ######",
    
}, {
    "id": "0235",
    "name": "USA",
    "flag": "ğŸ‡ºğŸ‡¸",
    "code": "US",
    "dial_code": "+1",
    "pattern": "### ### ####",
    
}, {
    "id": "0236",
    "name": "Uruguay",
    "flag": "ğŸ‡ºğŸ‡¾",
    "code": "UY",
    "dial_code": "+598",
    "pattern": "# ### ####",
    
}, {
    "id": "0237",
    "name": "Uzbekistan",
    "flag": "ğŸ‡ºğŸ‡¿",
    "code": "UZ",
    "dial_code": "+998",
    "pattern": "## ### ## ##",
    
}, {
    "id": "0238",
    "name": "Vanuatu",
    "flag": "ğŸ‡»ğŸ‡º",
    "code": "VU",
    "dial_code": "+678",
    "pattern": "#",
    
}, {
    "id": "0239",
    "name": "Venezuela",
    "flag": "ğŸ‡»ğŸ‡ª",
    "code": "VE",
    "dial_code": "+58",
    "pattern": "### ### ####",
    
}, {
    "id": "0240",
    "name": "Vietnam",
    "flag": "ğŸ‡»ğŸ‡³",
    "code": "VN",
    "dial_code": "+84",
    "pattern": "#",
    
}, {
    "id": "0241",
    "name": "Virgin Islands, British",
    "flag": "ğŸ‡»ğŸ‡¬",
    "code": "VG",
    "dial_code": "+1284",
    "pattern": "### ####",
    
}, {
    "id": "0242",
    "name": "Virgin Islands, U.S.",
    "flag": "ğŸ‡»ğŸ‡®",
    "code": "VI",
    "dial_code": "+1340",
    "pattern": "### ####",
    
}, {
    "id": "0243",
    "name": "Wallis & Futuna",
    "flag": "ğŸ‡¼ğŸ‡«",
    "code": "WF",
    "dial_code": "+681",
    "pattern": "#",
    
}, {
    "id": "0244",
    "name": "Yemen",
    "flag": "ğŸ‡¾ğŸ‡ª",
    "code": "YE",
    "dial_code": "+967",
    "pattern": "### ### ###",
    
}, {
    "id": "0245",
    "name": "Zambia",
    "flag": "ğŸ‡¿ğŸ‡²",
    "code": "ZM",
    "dial_code": "+260",
    "pattern": "## ### ####",
    
}, {
    "id": "0246",
    "name": "Zimbabwe",
    "flag": "ğŸ‡¿ğŸ‡¼",
    "code": "ZW",
    "dial_code": "+263",
    "pattern": "## ### ####",
    
}]
